1 27424U 02022A   12249.85072044 +.00001101 +00000-0 +25419-3 0 04164
2 27424 098.1999 189.1555 0001618 072.1049 288.0356 14.57129891550110